LEMUR-2-AMANDA-SVANTE   
1 48269U 21034B   26068.77637527  .00030872  00000+0  11134-2 0  9996
2 48269  97.5829 144.8625 0002703 205.4721 154.6385 15.28469003265849
STARLINK-34068          
1 63914U 25095AA  26068.32351005  .00032041  00000+0  11688-2 0  9990
2 63914  42.9971 178.1184 0000918 249.4112 110.6641 15.27579423 47722
